NORAD_CAT_ID,OBJECT_NAME,OBJECT_TYPE,EPOCH,MEAN_MOTION,ECCENTRICITY,INCLINATION,RA_OF_ASC_NODE,ARG_OF_PERICENTER,MEAN_ANOMALY,BSTAR,MEAN_MOTION_DOT,MEAN_MOTION_DDOT,TLE_LINE0,TLE_LINE1,TLE_LINE2,SEMIMAJOR_AXIS,PERIOD,APOGEE,PERIGEE,DECAYED
52684.0,STARLINK-4014,PAYLOAD,2024-04-24 19:44:06,15.08844579,0.0001426,53.2171,334.1127,122.3762,237.7368,0.000358,5.415e-05,0.0,0 STARLINK-4014,1 52684U 22053AE  24115.82229315  .00005415  00000-0  35800-3 0  9996,2 52684  53.2171 334.1127 0001426 122.3762 237.7368 15.08844579107895,6917.866,95.437,540.718,538.745,0.0
52684.0,STARLINK-4014,PAYLOAD,2024-04-25 14:48:43,15.08844478,0.0001232,53.217,330.5438,112.8647,247.2475,0.00014369,2e-05,0.0,0 STARLINK-4014,1 52684U 22053AE  24116.61717179  .00002000  00000-0  14369-3 0  9998,2 52684  53.2170 330.5438 0001232 112.8647 247.2475 15.08844478108018,6917.867,95.437,540.584,538.879,0.0
52684.0,STARLINK-4014,PAYLOAD,2024-04-25 21:10:16,15.08839943,9.92e-05,53.217,329.3549,91.5525,268.558,2.1202e-05,5e-07,0.0,0 STARLINK-4014,1 52684U 22053AE  24116.88213370  .00000050  00000-0  21202-4 0  9999,2 52684  53.2170 329.3549 0000992  91.5525 268.5580 15.08839943107672,6917.881,95.438,540.432,539.059,0.0
52684.0,STARLINK-4014,PAYLOAD,2024-04-26 06:42:34,15.08851954,9.86e-05,53.2177,327.5855,124.5534,235.5551,0.00017099,2.435e-05,0.0,0 STARLINK-4014,1 52684U 22053AE  24117.27956750  .00002435  00000-0  17099-3 0  9996,2 52684  53.2177 327.5855 0000986 124.5534 235.5551 15.08851954107734,6917.844,95.437,540.391,539.027,0.0
52684.0,STARLINK-4014,PAYLOAD,2024-04-26 14:39:31,15.08828261,0.000115,53.2185,326.0913,106.9923,253.1195,-9.1975e-05,-1.751e-05,0.0,0 STARLINK-4014,1 52684U 22053AE  24117.61077863 -.00001751  00000-0 -91975-4 0  9991,2 52684  53.2185 326.0913 0001150 106.9923 253.1195 15.08828261108165,6917.916,95.438,540.577,538.986,0.0
52684.0,STARLINK-4014,PAYLOAD,2024-04-27 06:33:21,15.08852611,9.68e-05,53.2173,323.1173,76.7975,283.3125,0.00022225,3.252e-05,0.0,0 STARLINK-4014,1 52684U 22053AE  24118.27316684  .00003252  00000-0  22225-3 0  9998,2 52684  53.2173 323.1173 0000968  76.7975 283.3125 15.08852611107887,6917.842,95.437,540.376,539.037,0.0
52684.0,STARLINK-4014,PAYLOAD,2024-04-27 20:51:51,15.08830331,0.0001287,53.2179,320.4422,77.9568,282.1568,-3.8823e-05,-9.06e-06,0.0,0 STARLINK-4014,1 52684U 22053AE  24118.86934038 -.00000906  00000-0 -38823-4 0  9999,2 52684  53.2179 320.4422 0001287  77.9568 282.1568 15.08830331107979,6917.91,95.438,540.665,538.885,0.0
52684.0,STARLINK-4014,PAYLOAD,2024-04-28 12:45:42,15.08839323,0.0001607,53.2174,317.4728,87.2185,272.8991,0.00017663,2.524e-05,0.0,0 STARLINK-4014,1 52684U 22053AE  24119.53173811  .00002524  00000-0  17663-3 0  9992,2 52684  53.2174 317.4728 0001607  87.2185 272.8991 15.08839323108072,6917.882,95.438,540.859,538.636,0.0
52684.0,STARLINK-4014,PAYLOAD,2024-04-28 22:18:01,15.08837643,0.0001055,53.2176,315.6853,84.0532,276.058,3.3309e-05,2.42e-06,0.0,0 STARLINK-4014,1 52684U 22053AE  24119.92917927  .00000242  00000-0  33309-4 0  9990,2 52684  53.2176 315.6853 0001055  84.0532 276.0580 15.08837643108513,6917.888,95.438,540.482,539.023,0.0
52684.0,STARLINK-4014,PAYLOAD,2024-04-29 18:58:01,15.08836474,8.15e-05,53.2177,311.817,91.7414,268.3671,0.00019784,2.862e-05,0.0,0 STARLINK-4014,1 52684U 22053AE  24120.79030077  .00002862  00000-0  19784-3 0  9999,2 52684  53.2177 311.8170 0000815  91.7414 268.3671 15.08836474108269,6917.891,95.438,540.32,539.192,0.0
52684.0,STARLINK-4014,PAYLOAD,2024-04-29 22:08:47,15.08844634,0.0001004,53.2172,311.2206,97.9778,262.1328,0.00015662,2.206e-05,0.0,0 STARLINK-4014,1 52684U 22053AE  24120.92277632  .00002206  00000-0  15662-3 0  9997,2 52684  53.2172 311.2206 0001004  97.9778 262.1328 15.08844634108662,6917.866,95.437,540.426,539.037,0.0
52684.0,STARLINK-4014,PAYLOAD,2024-04-30 06:05:43,15.08848898,0.0001099,53.2181,309.7357,97.7268,262.3849,0.00019572,2.829e-05,0.0,0 STARLINK-4014,1 52684U 22053AE  24121.25397385  .00002829  00000-0  19572-3 0  9997,2 52684  53.2181 309.7357 0001099  97.7268 262.3849 15.08848898108337,6917.853,95.437,540.478,538.958,0.0
52684.0,STARLINK-4014,PAYLOAD,2024-04-30 21:59:34,15.08848749,0.0001072,53.2189,306.7614,105.3908,254.7203,0.00013157,1.807e-05,0.0,0 STARLINK-4014,1 52684U 22053AE  24121.91637198  .00001807  00000-0  13157-3 0  9997,2 52684  53.2189 306.7614 0001072 105.3908 254.7203 15.08848749108813,6917.854,95.437,540.46,538.977,0.0
52684.0,STARLINK-4014,PAYLOAD,2024-05-01 12:18:02,15.08843979,0.0001173,53.2177,304.0859,103.6339,256.4783,7.4249e-05,8.94e-06,0.0,0 STARLINK-4014,1 52684U 22053AE  24122.51253271  .00000894  00000-0  74249-4 0  9995,2 52684  53.2177 304.0859 0001173 103.6339 256.4783 15.08843979108523,6917.868,95.437,540.545,538.922,0.0
52684.0,STARLINK-4014,PAYLOAD,2024-05-01 21:50:21,15.08844144,0.0001183,53.2185,302.3044,87.4367,272.676,-1.4957e-05,-5.26e-06,0.0,0 STARLINK-4014,1 52684U 22053AE  24122.90997439 -.00000526  00000-0 -14957-4 0  9993,2 52684  53.2185 302.3044 0001183  87.4367 272.6760 15.08844144108968,6917.868,95.437,540.551,538.914,0.0
52684.0,STARLINK-4014,PAYLOAD,2024-05-02 12:08:50,15.0883434,9.45e-05,53.2191,299.6281,88.9283,271.1818,3.5619e-05,2.79e-06,0.0,0 STARLINK-4014,1 52684U 22053AE  24123.50613763  .00000279  00000-0  35619-4 0  9996,2 52684  53.2191 299.6281 0000945  88.9283 271.1818 15.08834340108677,6917.898,95.438,540.416,539.109,0.0
52684.0,STARLINK-4014,PAYLOAD,2024-05-03 04:02:41,15.08845749,9.19e-05,53.2176,296.6516,88.3223,271.7874,2.8724e-05,1.7e-06,0.0,0 STARLINK-4014,1 52684U 22053AE  24124.16853077  .00000170  00000-0  28724-4 0  9992,2 52684  53.2176 296.6516 0000919  88.3223 271.7874 15.08845749108771,6917.863,95.437,540.364,539.092,0.0
52684.0,STARLINK-4014,PAYLOAD,2024-05-03 11:59:37,15.08834482,0.0001428,53.2174,295.1658,83.5344,276.5811,5.8642e-05,6.45e-06,0.0,0 STARLINK-4014,1 52684U 22053AE  24124.49973882  .00000645  00000-0  58642-4 0  9994,2 52684  53.2174 295.1658 0001428  83.5344 276.5811 15.08834482108829,6917.897,95.438,540.75,538.774,0.0
52684.0,STARLINK-4014,PAYLOAD,2024-05-03 15:10:23,15.08831593,0.0001128,53.2175,294.5714,91.3465,268.7657,2.8531e-05,1.66e-06,0.0,0 STARLINK-4014,1 52684U 22053AE  24124.63222127  .00000166  00000-0  28531-4 0  9991,2 52684  53.2175 294.5714 0001128  91.3465 268.7657 15.08831593109220,6917.906,95.438,540.551,538.991,0.0
52684.0,STARLINK-4014,PAYLOAD,2024-05-03 18:21:09,15.08836665,0.0001188,53.2167,293.9781,92.5182,267.5946,5.7087e-05,6.21e-06,0.0,0 STARLINK-4014,1 52684U 22053AE  24124.76469767  .00000621  00000-0  57087-4 0  9992,2 52684  53.2167 293.9781 0001188  92.5182 267.5946 15.08836665109248,6917.891,95.438,540.577,538.934,0.0
52684.0,STARLINK-4014,PAYLOAD,2024-05-04 03:53:28,15.08846745,0.000111,53.2177,292.1948,97.152,262.9599,5.8779e-05,6.48e-06,0.0,0 STARLINK-4014,1 52684U 22053AE  24125.16213100  .00000648  00000-0  58779-4 0  9993,2 52684  53.2177 292.1948 0001110  97.1520 262.9599 15.08846745108924,6917.86,95.437,540.493,538.957,0.0
52684.0,STARLINK-4014,PAYLOAD,2024-05-04 18:11:58,15.08824312,0.0001009,53.2177,289.5177,103.4382,256.6723,4.0392e-05,3.55e-06,0.0,0 STARLINK-4014,1 52684U 22053AE  24125.75831042  .00000355  00000-0  40392-4 0  9996,2 52684  53.2177 289.5177 0001009 103.4382 256.6723 15.08824312109018,6917.928,95.439,540.491,539.095,0.0
52684.0,STARLINK-4014,PAYLOAD,2024-05-05 14:51:58,15.08839405,0.0001225,53.2186,285.6531,110.9752,249.1371,0.00011833,1.596e-05,0.0,0 STARLINK-4014,1 52684U 22053AE  24126.61942277  .00001596  00000-0  11833-3 0  9990,2 52684  53.2186 285.6531 0001225 110.9752 249.1371 15.08839405109524,6917.882,95.438,540.595,538.9,0.0
52684.0,STARLINK-4014,PAYLOAD,2024-05-05 18:02:44,15.08844346,0.0001015,53.2175,285.0567,102.0277,258.0829,0.00012762,1.744e-05,0.0,0 STARLINK-4014,1 52684U 22053AE  24126.75190012  .00001744  00000-0  12762-3 0  9994,2 52684  53.2175 285.0567 0001015 102.0277 258.0829 15.08844346109163,6917.867,95.437,540.434,539.03,0.0
52684.0,STARLINK-4014,PAYLOAD,2024-05-06 03:35:02,15.08857586,9.44e-05,53.2169,283.2704,79.159,280.9508,0.00016959,2.414e-05,0.0,0 STARLINK-4014,1 52684U 22053AE  24127.14932991  .00002414  00000-0  16959-3 0  9995,2 52684  53.2169 283.2704 0000944  79.1590 280.9508 15.08857586109226,6917.827,95.436,540.345,539.039,0.0
52684.0,STARLINK-4014,PAYLOAD,2024-05-06 09:56:35,15.08840451,0.0001507,53.2179,282.0834,89.9544,270.1621,0.0002376,3.495e-05,0.0,0 STARLINK-4014,1 52684U 22053AE  24127.41430132  .00003495  00000-0  23760-3 0  9993,2 52684  53.2179 282.0834 0001507  89.9544 270.1621 15.08840451109266,6917.879,95.438,540.787,538.701,0.0
52684.0,STARLINK-4014,PAYLOAD,2024-05-06 14:42:45,15.08836753,0.0001096,53.2177,281.1911,91.9082,268.2036,0.00021053,3.064e-05,0.0,0 STARLINK-4014,1 52684U 22053AE  24127.61302583  .00003064  00000-0  21053-3 0  9998,2 52684  53.2177 281.1911 0001096  91.9082 268.2036 15.08836753109676,6917.89,95.438,540.514,538.997,0.0
52684.0,STARLINK-4014,PAYLOAD,2024-05-06 17:53:31,15.0885008,9.27e-05,53.2164,280.5941,75.2473,284.8622,0.00028854,4.309e-05,0.0,0 STARLINK-4014,1 52684U 22053AE  24127.74549931  .00004309  00000-0  28854-3 0  9991,2 52684  53.2164 280.5941 0000927  75.2473 284.8622 15.08850080109695,6917.85,95.437,540.356,539.073,0.0
52684.0,STARLINK-4014,PAYLOAD,2024-05-07 09:47:22,15.08832968,0.0001206,53.2175,277.6218,82.3004,277.8125,-0.00018456,-3.223e-05,0.0,0 STARLINK-4014,1 52684U 22053AE  24128.40790443 -.00003223  00000-0 -18456-3 0  9994,2 52684  53.2175 277.6218 0001206  82.3004 277.8125 15.08832968109416,6917.902,95.438,540.601,538.933,0.0
52684.0,STARLINK-4014,PAYLOAD,2024-05-07 14:33:32,15.08830155,0.0001108,53.2174,276.7303,81.9881,278.1236,-0.00018867,-3.288e-05,0.0,0 STARLINK-4014,1 52684U 22053AE  24128.60662641 -.00003288  00000-0 -18867-3 0  9991,2 52684  53.2174 276.7303 0001108  81.9881 278.1236 15.08830155109827,6917.91,95.438,540.542,539.009,0.0
